{
    "links": {
        "self": "http://www.neowsapp.com/rest/v1/neo/3555047?api_key=iIulBulltgU6a56xZRHN4H3l9WmuAYTsLGpBGhQ2"
    },
    "id": "3555047",
    "neo_reference_id": "3555047",
    "name": "(2011 AO4)",
    "designation": "2011 AO4",
    "nasa_jpl_url": "http://ssd.jpl.nasa.gov/sbdb.cgi?sstr=3555047",
    "absolute_magnitude_h": 21.3,
    "estimated_diameter": {
        "kilometers": {
            "estimated_diameter_min": 0.1460679643,
            "estimated_diameter_max": 0.3266178974
        },
        "meters": {
            "estimated_diameter_min": 146.0679642714,
            "estimated_diameter_max": 326.6178974458
        },
        "miles": {
            "estimated_diameter_min": 0.090762397,
            "estimated_diameter_max": 0.2029508896
        },
        "feet": {
            "estimated_diameter_min": 479.2256199,
            "estimated_diameter_max": 1071.581062656
        }
    },
    "is_potentially_hazardous_asteroid": false,
    "close_approach_data": [
        {
            "close_approach_date": "2010-12-26",
            "close_approach_date_full": "2010-Dec-26 11:16",
            "epoch_date_close_approach": 1293362160000,
            "relative_velocity": {
                "kilometers_per_second": "19.0136486945",
                "kilometers_per_hour": "68449.1353003303",
                "miles_per_hour": "42531.630764808"
            },
            "miss_distance": {
                "astronomical": "0.2368694018",
                "lunar": "92.1421973002",
                "kilometers": "35435157.977454166",
                "miles": "22018386.1610568508"
            },
            "orbiting_body": "Earth"
        }
    ],
    "orbital_data": {
        "orbit_id": "9",
        "orbit_determination_date": "2017-04-06 08:55:03",
        "first_observation_date": "2011-01-05",
        "last_observation_date": "2011-01-13",
        "data_arc_in_days": 8,
        "observations_used": 35,
        "orbit_uncertainty": "9",
        "minimum_orbit_intersection": ".152199",
        "jupiter_tisserand_invariant": "3.998",
        "epoch_osculation": "2455568.5",
        "eccentricity": ".3421630654362238",
        "semi_major_axis": "1.684041534889576",
        "inclination": "31.86587665622598",
        "ascending_node_longitude": "93.43552935728378",
        "orbital_period": "798.2292260976884",
        "perihelion_distance": "1.107824720989835",
        "perihelion_argument": "332.8027229398511",
        "aphelion_distance": "2.260258348789316",
        "perihelion_time": "2455538.953176380375",
        "mean_anomaly": "13.32556633520613",
        "mean_motion": ".4509982699580367",
        "equinox": "J2000",
        "orbit_class": {
            "orbit_class_type": "AMO",
            "orbit_class_description": "Near-Earth asteroid orbits similar to that of 1221 Amor",
            "orbit_class_range": "1.017 AU < q (perihelion) < 1.3 AU"
        }
    },
    "is_sentry_object": false
}